EUTELSAT 21B            
1 38992U 12062B   25286.91992553  .00000117  00000+0  00000+0 0  9995
2 38992   0.0796  28.0130 0002733 182.4228 165.0450  1.00272569 47353
EUTELSAT 70B            
1 39020U 12069A   25286.90808737 -.00000057  00000+0  00000+0 0  9998
2 39020   0.0687  18.0902 0004160 185.4438 216.6028  1.00272119 47033
EUTELSAT 117 WEST A     
1 39122U 13012A   25286.89237332 -.00000027  00000+0  00000+0 0  9992
2 39122   0.0627  69.2312 0002836 143.9168  14.0266  1.00272913 45966
EUTELSAT 7B             
1 39163U 13022A   25286.91706552  .00000034  00000+0  00000+0 0  9993
2 39163   0.0716  16.1221 0001721 289.9901  53.7493  1.00271630 45482
EXPRESS-AT1             
1 39612U 14010A   25286.99813698  .00000065  00000+0  00000+0 0  9992
2 39612   0.0190 223.7115 0000461 316.9767 257.4565  1.00271284 42346
EXPRESS-AT2             
1 39613U 14010B   25285.23079185 -.00000290  00000+0  00000+0 0  9995
2 39613   0.0174 228.3626 0000312 164.2420 211.3956  1.00268655 42017
EUTELSAT 3B             
1 39773U 14030A   25286.91628552  .00000007  00000+0  00000+0 0  9993
2 39773   0.0693 346.7341 0004783 211.7895 157.1799  1.00272811 41592
EUTELSAT 115 WEST B     
1 40425U 15010B   25286.89289333 -.00000039  00000+0  00000+0 0  9991
2 40425   0.0107  73.9478 0000256  40.6142 114.6959  1.00272576 38920
